FENGYUN 1C DEB          
1 35195U 99025DPB 18116.50187808  .00000418  00000-0  13079-3 0  9998
2 35195  99.0062   1.7787 0130487  80.3712 281.2189 14.41598637506678
FENGYUN 1C DEB          
1 35196U 99025DPC 18115.11667243  .00000133  00000-0  75647-4 0  9995
2 35196  98.8252 173.6434 0235025  28.5734   1.5816 14.11726989497294
FENGYUN 1C DEB          
1 35199U 99025DPF 18114.84057217  .00000410  00000-0  34435-3 0  9998
2 35199  98.4050 117.8605 0127052  20.9849 339.6460 13.89402799533893
FENGYUN 1C DEB          
1 35200U 99025DPG 18114.54891382 -.00000015  00000-0  29881-4 0  9999
2 35200  98.9295  26.8523 0355057 230.6423 257.3494 13.40547538508518
FENGYUN 1C DEB          
1 35201U 99025DPH 18116.93590490  .00000015  00000-0  33717-4 0  9993
2 35201  98.9468 144.3851 0006508 200.9111 277.3034 14.10126851477368
FENGYUN 1C DEB          
1 35202U 99025DPJ 18113.00186659  .00000258  00000-0  41741-3 0  9991
2 35202 100.3350 129.3818 0385876 146.1702 216.4692 13.31546157486718
FENGYUN 1C DEB          
1 35203U 99025DPK 18115.88154284  .00000886  00000-0  11528-2 0  9995
2 35203 102.0882 347.4839 0552251  37.3841 326.4389 13.15195916509707
FENGYUN 1C DEB          
1 35204U 99025DPL 18116.18622022  .00000769  00000-0  37433-3 0  9994
2 35204  98.9071 205.1942 0061425 113.4605 277.3710 14.20145901511776
FENGYUN 1C DEB          
1 35205U 99025DPM 18116.86038925  .00001490  00000-0  78255-3 0  9992
2 35205  98.9636  87.5837 0069465 140.1275 220.5030 14.14438353530091
FENGYUN 1C DEB          
1 35207U 99025DPP 18116.82925400  .00000734  00000-0  28905-3 0  9990
2 35207  98.8797 123.6013 0078725 204.7358 155.0041 14.30596384248992
FENGYUN 1C DEB          
1 35208U 99025DPQ 18116.30147012  .00000413  00000-0  33864-3 0  9993
2 35208  99.1656 159.0500 0106779 225.5169 133.7224 13.92603118517825
FENGYUN 1C DEB          
1 35210U 99025DPS 18116.76285174  .00001064  00000-0  63793-3 0  9995
2 35210  98.9672  51.9005 0068981 198.2927 194.2247 14.07994495507232
FENGYUN 1C DEB          
1 35211U 99025DPT 18116.89650853  .00000697  00000-0  48942-3 0  9990
2 35211  98.3926 153.1072 0145511 169.6269 316.3590 13.96149258506305
FENGYUN 1C DEB          
1 35213U 99025DPV 18113.21652055  .00001686  00000-0  18373-3 0  9995
2 35213  98.4998 267.3676 0168452 312.3732  46.3319 14.79809929513112
FENGYUN 1C DEB          
1 35214U 99025DPW 18116.51774573  .00002294  00000-0  35181-3 0  9994
2 35214  98.5379 214.8425 0093701  50.5706  13.3809 14.71780388546092
FENGYUN 1C DEB          
1 35215U 99025DPX 18116.52032238  .00009817  00000-0  72624-3 0  9992
2 35215  98.9799 323.7590 0127056  61.9253 299.4743 14.97126921217432
FENGYUN 1C DEB          
1 35217U 99025DPZ 18114.62752124  .00000873  00000-0  10933-2 0  9993
2 35217 101.8690 174.3035 0327270 195.5513 163.5365 13.47788544518394
FENGYUN 1C DEB          
1 35219U 99025DQB 18114.09996005  .00002406  00000-0  44463-3 0  9994
2 35219  99.1165  73.7261 0098462 147.5371 213.1936 14.63435385571691
FENGYUN 1C DEB          
1 35220U 99025DQC 18114.15606830  .00000831  00000-0  49790-3 0  9995
2 35220  99.1206  96.8573 0051335 235.4995 124.1320 14.09243596237887
FENGYUN 1C DEB          
1 35221U 99025DQD 18116.02916252  .00001125  00000-0  47556-3 0  9991
2 35221  98.3744 316.2273 0071401 210.2581 149.4468 14.26023213514949
FENGYUN 1C DEB          
1 35222U 99025DQE 18114.25328474  .00002074  00000-0  16037-3 0  9992
2 35222  98.9340 232.0000 0149284  97.7985 264.0208 14.94492933554676
FENGYUN 1C DEB          
1 35223U 99025DQF 18114.85168129  .00000372  00000-0  62532-4 0  9999
2 35223  98.9929 140.5266 0183622 356.7032   3.2945 14.66515749529417
FENGYUN 1C DEB          
1 35225U 99025DQH 18116.28435720  .00001520  00000-0  76884-3 0  9994
2 35225 103.2906 269.2951 0062216 176.7363 183.4212 14.17948189208962
FENGYUN 1C DEB          
1 35226U 99025DQJ 18116.83804098  .00003519  00000-0  44631-3 0  9999
2 35226  98.9828  86.3844 0047751 203.9480 155.9508 14.81712136596127
FENGYUN 1C DEB          
1 35227U 99025DQK 18116.50817551  .00001319  00000-0  26078-3 0  9993
2 35227  98.8963  26.8025 0076930 263.7601  95.4831 14.62486145256630
FENGYUN 1C DEB          
1 35229U 99025DQM 18116.13388377  .00000878  00000-0  45627-3 0  9993
2 35229  98.5022 244.9198 0093840  65.1549 295.9348 14.14826362534379
FENGYUN 1C DEB          
1 35230U 99025DQN 18116.49638418  .00001218  00000-0  50526-3 0  9991
2 35230  98.3422 309.0997 0065544 183.0938 176.9848 14.27069823322783
FENGYUN 1C DEB          
1 35231U 99025DQP 18113.27386861 -.00000025  00000-0  10960-4 0  9992
2 35231  99.0585 125.2141 0038163  82.3321 278.2182 14.14328208521290
FENGYUN 1C DEB          
1 35233U 99025DQR 18116.59794654  .00000767  00000-0  37147-3 0  9992
2 35233  98.9113 157.7130 0055514  67.8093  84.9376 14.20635462514589
FENGYUN 1C DEB          
1 35234U 99025DQS 18115.59360796  .00000571  00000-0  15297-3 0  9993
2 35234  98.3773 168.6131 0139212 193.3103 166.4402 14.46493906539130
FENGYUN 1C DEB          
1 35235U 99025DQT 18116.60823110  .00007111  00000-0  46576-3 0  9992
2 35235  99.4456  35.6738 0039625 157.3540 202.9441 15.07511439281693
FENGYUN 1C DEB          
1 35236U 99025DQU 18106.22747283  .00000281  00000-0  10622-3 0  9990
2 35236  98.9038 257.3259 0097795 177.9652 182.1950 14.36579188578834
FENGYUN 1C DEB          
1 35237U 99025DQV 18116.28372291  .00002234  00000-0  44796-3 0  9990
2 35237  99.6103 298.1709 0066146 343.9019  16.0075 14.61671151568177
FENGYUN 1C DEB          
1 35239U 99025DQX 18116.62525072  .00000022  00000-0  65816-4 0  9997
2 35239  99.3499   0.9894 0242783  23.5048 337.6973 13.63955784200905
FENGYUN 1C DEB          
1 35240U 99025DQY 18112.38021708  .00000770  00000-0  47513-3 0  9998
2 35240  99.3876 276.3516 0055490  12.0736 348.1748 14.07887874537745
FENGYUN 1C DEB          
1 35241U 99025DQZ 18116.69065211  .00000091  00000-0  95788-4 0  9998
2 35241  98.6423 200.6305 0152611   1.5773 358.5838 13.90611485489575
FENGYUN 1C DEB          
1 35242U 99025DRA 18113.48219799  .00000461  00000-0  62277-3 0  9992
2 35242 100.0918 112.0421 0317247 182.9512 337.0915 13.46215428491648
FENGYUN 1C DEB          
1 35243U 99025DRB 18116.54207578  .00000661  00000-0  17413-3 0  9999
2 35243  98.9425 330.5009 0128024  88.2353 273.3496 14.47895728504369
FENGYUN 1C DEB          
1 35244U 99025DRC 18116.55358465  .00000028  00000-0  46920-4 0  9996
2 35244  99.1414 149.7906 0073272 347.9878  11.9538 14.02345608267220
FENGYUN 1C DEB          
1 35245U 99025DRD 18116.53850892  .00000591  00000-0  41723-3 0  9996
2 35245  99.2537 140.0870 0073315  66.9671  85.0498 14.00689283486609
FENGYUN 1C DEB          
1 36138U 99025DRK 18116.26347475  .00001751  00000-0  66920-3 0  9991
2 36138  99.1629 292.8938 0051063  78.2409 282.4495 14.31363947474229
FENGYUN 1C DEB          
1 36139U 99025DRL 18114.26246126  .00001392  00000-0  82868-3 0  9991
2 36139  97.9427 291.4921 0147841  44.9894 316.3142 14.03362172179986
FENGYUN 1C DEB          
1 36140U 99025DRM 18116.03930851  .00001873  00000-0  27649-3 0  9995
2 36140  98.4172 197.4709 0186830 131.7262 352.0797 14.65373051307336
FENGYUN 1C DEB          
1 36141U 99025DRN 18115.93903899  .00001963  00000-0  12175-2 0  9993
2 36141  98.4864 171.4930 0147474 209.0469 150.2435 14.00958323248513
FENGYUN 1C DEB          
1 36142U 99025DRP 18114.86452498  .00000371  00000-0  37408-3 0  9998
2 36142  98.4051 349.1684 0233156 305.9294  52.0422 13.71606165518995
FENGYUN 1C DEB          
1 36147U 99025DRU 18115.48364719  .00000363  00000-0  39109-3 0  9991
2 36147  98.5320 216.6676 0469138 157.2773 204.9890 13.38581540226322
FENGYUN 1C DEB          
1 36148U 99025DRV 18116.25747292  .00000840  00000-0  75686-3 0  9999
2 36148  98.4174 281.0842 0345608 236.0021 120.7845 13.62492070521203
FENGYUN 1C DEB          
1 36149U 99025DRW 18115.13667414  .00000816  00000-0  42223-3 0  9997
2 36149  99.6225  90.7673 0029919 344.5252  15.5002 14.17960295509837
FENGYUN 1C DEB          
1 36152U 99025DRZ 18114.91655033  .00000440  00000-0  27875-3 0  9999
2 36152  98.9694 155.7053 0063608 166.8628 193.4216 14.08117512248370
FENGYUN 1C DEB          
1 36153U 99025DSA 18114.96095172  .00000756  00000-0  33183-3 0  9996
2 36153  98.7672 170.7231 0044252 332.0153 151.7172 14.26067675472870
FENGYUN 1C DEB          
1 36154U 99025DSB 18116.09778042  .00001316  00000-0  93261-3 0  9993
2 36154  97.7174  67.1154 0326783  47.4029   8.1843 13.76254792231113
FENGYUN 1C DEB          
1 36155U 99025DSC 18115.83250836  .00000801  00000-0  42544-3 0  9997
2 36155  99.0402 132.3600 0030351  96.2971 264.1661 14.16269913552153
FENGYUN 1C DEB          
1 36156U 99025DSD 18111.43684241  .00000932  00000-0  39022-3 0  9993
2 36156  98.8009 170.5173 0050320 335.9570  94.5549 14.27796062490725
FENGYUN 1C DEB          
1 36159U 99025DSG 18116.40780146  .00001458  00000-0  13426-3 0  9993
2 36159  99.5206 332.2779 0266060 338.0574  20.9404 14.73865237554009
FENGYUN 1C DEB          
1 36160U 99025DSH 18110.37101664  .00000016  00000-0  28608-4 0  9995
2 36160  98.1774 156.3866 0137514 286.7124  71.8996 14.10683997527181
FENGYUN 1C DEB          
1 36162U 99025DSK 18116.02375725  .00001187  00000-0  81979-3 0  9995
2 36162  97.6411  35.7608 0329322   8.1482 352.4843 13.77480883521311
FENGYUN 1C DEB          
1 36163U 99025DSL 18116.42020793  .00001072  00000-0  56106-3 0  9999
2 36163  99.0743 190.9768 0083154 159.4138 201.0417 14.14744190495036
FENGYUN 1C DEB          
1 36166U 99025DSP 18115.69096013  .00000572  00000-0  55768-3 0  9995
2 36166  97.5622 282.5633 0362534 300.2356  56.3359 13.56697701512527
FENGYUN 1C DEB          
1 36167U 99025DSQ 18116.11129466  .00000508  00000-0  18506-3 0  9991
2 36167  98.8294 246.1901 0085856 204.9060 154.7970 14.35580945486871
